ORBCOMM FM115           
1 41186U 15081H   25108.81785885  .00001353  00000+0  29942-3 0  9991
2 41186  46.9995 321.8959 0000609 181.2814 178.8072 14.62370880499083
ORBCOMM FM108           
1 41187U 15081J   25108.82999663  .00001720  00000+0  40717-3 0  9995
2 41187  47.0055  27.2647 0002499  27.2647 332.8369 14.58014355498218
ORBCOMM FM117           
1 41188U 15081K   25108.86480771  .00001716  00000+0  40633-3 0  9997
2 41188  47.0018  25.8827 0002853  37.1273 322.9809 14.58022186498233
ORBCOMM FM116           
1 41189U 15081L   25106.31997542  .00001361  00000+0  32606-3 0  9992
2 41189  47.0007 127.7626 0000953 226.9459 133.1346 14.58551445496695
